[{"OBJECT_NAME":"KUIPER-00008","OBJECT_ID":"2025-088A","EPOCH":"2026-03-03T18:00:01.999296","MEAN_MOTION":14.93969131,"ECCENTRICITY":0.0009598,"INCLINATION":51.8921,"RA_OF_ASC_NODE":114.1482,"ARG_OF_PERICENTER":73.3765,"MEAN_ANOMALY":99.6291,"EPHEMERIS_TYPE":0,"CLASSIFICATION_TYPE":"U","NORAD_CAT_ID":63724,"ELEMENT_SET_NO":999,"REV_AT_EPOCH":525,"BSTAR":-0.18206,"MEAN_MOTION_DOT":-0.01783148,"MEAN_MOTION_DDOT":0},{"OBJECT_NAME":"KUIPER-00009","OBJECT_ID":"2025-088B","EPOCH":"2026-03-03T15:18:17.877888","MEAN_MOTION":14.79902997,"ECCENTRICITY":0.0007712,"INCLINATION":51.9044,"RA_OF_ASC_NODE":133.4007,"ARG_OF_PERICENTER":79.2172,"MEAN_ANOMALY":280.9658,"EPHEMERIS_TYPE":0,"CLASSIFICATION_TYPE":"U","NORAD_CAT_ID":63725,"ELEMENT_SET_NO":999,"REV_AT_EPOCH":4688,"BSTAR":-0.0010884,"MEAN_MOTION_DOT":-8.508e-5,"MEAN_MOTION_DDOT":0},{"OBJECT_NAME":"KUIPER-00010","OBJECT_ID":"2025-088C","EPOCH":"2026-03-03T13:29:53.130336","MEAN_MOTION":14.79933758,"ECCENTRICITY":6.57e-5,"INCLINATION":51.9006,"RA_OF_ASC_NODE":110.1868,"ARG_OF_PERICENTER":90.5434,"MEAN_ANOMALY":269.5604,"EPHEMERIS_TYPE":0,"CLASSIFICATION_TYPE":"U","NORAD_CAT_ID":63726,"ELEMENT_SET_NO":999,"REV_AT_EPOCH":4682,"BSTAR":-5.4409e-6,"MEAN_MOTION_DOT":-2.63e-6,"MEAN_MOTION_DDOT":0},{"OBJECT_NAME":"KUIPER-00011","OBJECT_ID":"2025-088D","EPOCH":"2026-03-03T10:51:54.266688","MEAN_MOTION":14.80027083,"ECCENTRICITY":4.063e-5,"INCLINATION":51.8997,"RA_OF_ASC_NODE":118.2344,"ARG_OF_PERICENTER":59.2594,"MEAN_ANOMALY":300.8408,"EPHEMERIS_TYPE":0,"CLASSIFICATION_TYPE":"U","NORAD_CAT_ID":63727,"ELEMENT_SET_NO":999,"REV_AT_EPOCH":4683,"BSTAR":0.00069754677,"MEAN_MOTION_DOT":5.112e-5,"MEAN_MOTION_DDOT":0},{"OBJECT_NAME":"KUIPER-00012","OBJECT_ID":"2025-088E","EPOCH":"2026-03-03T14:00:03.000384","MEAN_MOTION":14.80134748,"ECCENTRICITY":8.37e-5,"INCLINATION":51.8997,"RA_OF_ASC_NODE":102.5846,"ARG_OF_PERICENTER":318.0085,"MEAN_ANOMALY":110.1831,"EPHEMERIS_TYPE":0,"CLASSIFICATION_TYPE":"U","NORAD_CAT_ID":63728,"ELEMENT_SET_NO":999,"REV_AT_EPOCH":368,"BSTAR":0.003081,"MEAN_MOTION_DOT":0.00023462,"MEAN_MOTION_DDOT":0},{"OBJECT_NAME":"KUIPER-00013","OBJECT_ID":"2025-088F","EPOCH":"2026-03-03T13:39:40.116384","MEAN_MOTION":14.79793319,"ECCENTRICITY":0.0002899,"INCLINATION":51.9003,"RA_OF_ASC_NODE":135.159,"ARG_OF_PERICENTER":29.0532,"MEAN_ANOMALY":331.0591,"EPHEMERIS_TYPE":0,"CLASSIFICATION_TYPE":"U","NORAD_CAT_ID":63729,"ELEMENT_SET_NO":999,"REV_AT_EPOCH":4666,"BSTAR":-0.00040591,"MEAN_MOTION_DOT":-3.304e-5,"MEAN_MOTION_DDOT":0},{"OBJECT_NAME":"KUIPER-00014","OBJECT_ID":"2025-088G","EPOCH":"2026-03-03T11:59:52.240416","MEAN_MOTION":14.79982547,"ECCENTRICITY":4.051e-5,"INCLINATION":51.9013,"RA_OF_ASC_NODE":136.438,"ARG_OF_PERICENTER":17.5183,"MEAN_ANOMALY":342.5794,"EPHEMERIS_TYPE":0,"CLASSIFICATION_TYPE":"U","NORAD_CAT_ID":63730,"ELEMENT_SET_NO":999,"REV_AT_EPOCH":4645,"BSTAR":0.00087071502,"MEAN_MOTION_DOT":6.431e-5,"MEAN_MOTION_DDOT":0},{"OBJECT_NAME":"KUIPER-00015","OBJECT_ID":"2025-088H","EPOCH":"2026-03-03T15:50:57.163776","MEAN_MOTION":14.83576691,"ECCENTRICITY":0.000972,"INCLINATION":51.8986,"RA_OF_ASC_NODE":145.1515,"ARG_OF_PERICENTER":55.0068,"MEAN_ANOMALY":305.1807,"EPHEMERIS_TYPE":0,"CLASSIFICATION_TYPE":"U","NORAD_CAT_ID":63731,"ELEMENT_SET_NO":999,"REV_AT_EPOCH":4680,"BSTAR":0.00099876,"MEAN_MOTION_DOT":8.095e-5,"MEAN_MOTION_DDOT":0},{"OBJECT_NAME":"KUIPER-00016","OBJECT_ID":"2025-088J","EPOCH":"2026-03-02T11:37:25.552992","MEAN_MOTION":14.79884692,"ECCENTRICITY":0.0006523,"INCLINATION":51.8997,"RA_OF_ASC_NODE":143.4592,"ARG_OF_PERICENTER":55.0941,"MEAN_ANOMALY":305.0633,"EPHEMERIS_TYPE":0,"CLASSIFICATION_TYPE":"U","NORAD_CAT_ID":63732,"ELEMENT_SET_NO":999,"REV_AT_EPOCH":4626,"BSTAR":0.00074135,"MEAN_MOTION_DOT":5.429e-5,"MEAN_MOTION_DDOT":0},{"OBJECT_NAME":"KUIPER-00018","OBJECT_ID":"2025-088K","EPOCH":"2026-03-03T18:00:01.999296","MEAN_MOTION":14.80136549,"ECCENTRICITY":0.0002803,"INCLINATION":51.9014,"RA_OF_ASC_NODE":126.8321,"ARG_OF_PERICENTER":87.9808,"MEAN_ANOMALY":113.5603,"EPHEMERIS_TYPE":0,"CLASSIFICATION_TYPE":"U","NORAD_CAT_ID":63733,"ELEMENT_SET_NO":999,"REV_AT_EPOCH":285,"BSTAR":-0.0037334,"MEAN_MOTION_DOT":-0.00028701,"MEAN_MOTION_DDOT":0},{"OBJECT_NAME":"KUIPER-00019","OBJECT_ID":"2025-088L","EPOCH":"2026-03-03T13:52:50.439648","MEAN_MOTION":14.79941075,"ECCENTRICITY":6.22e-5,"INCLINATION":51.8996,"RA_OF_ASC_NODE":126.1201,"ARG_OF_PERICENTER":113.4152,"MEAN_ANOMALY":246.6876,"EPHEMERIS_TYPE":0,"CLASSIFICATION_TYPE":"U","NORAD_CAT_ID":63734,"ELEMENT_SET_NO":999,"REV_AT_EPOCH":4660,"BSTAR":2.2373e-5,"MEAN_MOTION_DOT":-5.1e-7,"MEAN_MOTION_DDOT":0},{"OBJECT_NAME":"KUIPER-00020","OBJECT_ID":"2025-088M","EPOCH":"2026-03-03T13:47:26.684160","MEAN_MOTION":14.7988489,"ECCENTRICITY":0.0006711,"INCLINATION":51.9016,"RA_OF_ASC_NODE":130.1296,"ARG_OF_PERICENTER":65.7209,"MEAN_ANOMALY":294.4453,"EPHEMERIS_TYPE":0,"CLASSIFICATION_TYPE":"U","NORAD_CAT_ID":63735,"ELEMENT_SET_NO":999,"REV_AT_EPOCH":4675,"BSTAR":0.00047122,"MEAN_MOTION_DOT":3.368e-5,"MEAN_MOTION_DDOT":0},{"OBJECT_NAME":"KUIPER-00021","OBJECT_ID":"2025-088N","EPOCH":"2026-03-03T13:45:07.054848","MEAN_MOTION":14.799653,"ECCENTRICITY":0.0003305,"INCLINATION":51.9008,"RA_OF_ASC_NODE":131.1335,"ARG_OF_PERICENTER":71.8347,"MEAN_ANOMALY":288.2975,"EPHEMERIS_TYPE":0,"CLASSIFICATION_TYPE":"U","NORAD_CAT_ID":63736,"ELEMENT_SET_NO":999,"REV_AT_EPOCH":4657,"BSTAR":0.0013372,"MEAN_MOTION_DOT":9.996e-5,"MEAN_MOTION_DDOT":0},{"OBJECT_NAME":"KUIPER-00023","OBJECT_ID":"2025-088P","EPOCH":"2026-03-03T13:43:30.737856","MEAN_MOTION":14.79915619,"ECCENTRICITY":0.0008962,"INCLINATION":51.8992,"RA_OF_ASC_NODE":132.5976,"ARG_OF_PERICENTER":82.4037,"MEAN_ANOMALY":277.7943,"EPHEMERIS_TYPE":0,"CLASSIFICATION_TYPE":"U","NORAD_CAT_ID":63737,"ELEMENT_SET_NO":999,"REV_AT_EPOCH":4685,"BSTAR":0.00073641,"MEAN_MOTION_DOT":5.396e-5,"MEAN_MOTION_DDOT":0},{"OBJECT_NAME":"KUIPER-00024","OBJECT_ID":"2025-088Q","EPOCH":"2026-03-03T10:48:29.179872","MEAN_MOTION":14.79933464,"ECCENTRICITY":7.482e-5,"INCLINATION":51.9044,"RA_OF_ASC_NODE":120.7046,"ARG_OF_PERICENTER":77.8209,"MEAN_ANOMALY":282.2837,"EPHEMERIS_TYPE":0,"CLASSIFICATION_TYPE":"U","NORAD_CAT_ID":63738,"ELEMENT_SET_NO":999,"REV_AT_EPOCH":4713,"BSTAR":0.00014200038,"MEAN_MOTION_DOT":8.62e-6,"MEAN_MOTION_DDOT":0},{"OBJECT_NAME":"KUIPER-00025","OBJECT_ID":"2025-088R","EPOCH":"2026-03-03T10:18:44.166240","MEAN_MOTION":14.83449957,"ECCENTRICITY":2.517e-5,"INCLINATION":51.9028,"RA_OF_ASC_NODE":129.1898,"ARG_OF_PERICENTER":53.5576,"MEAN_ANOMALY":306.5411,"EPHEMERIS_TYPE":0,"CLASSIFICATION_TYPE":"U","NORAD_CAT_ID":63739,"ELEMENT_SET_NO":999,"REV_AT_EPOCH":4687,"BSTAR":0.00018687696,"MEAN_MOTION_DOT":1.322e-5,"MEAN_MOTION_DDOT":0},{"OBJECT_NAME":"KUIPER-00027","OBJECT_ID":"2025-088S","EPOCH":"2026-03-03T09:07:19.353504","MEAN_MOTION":14.79914815,"ECCENTRICITY":8.048e-5,"INCLINATION":51.902,"RA_OF_ASC_NODE":123.4863,"ARG_OF_PERICENTER":107.6641,"MEAN_ANOMALY":252.4409,"EPHEMERIS_TYPE":0,"CLASSIFICATION_TYPE":"U","NORAD_CAT_ID":63740,"ELEMENT_SET_NO":999,"REV_AT_EPOCH":4668,"BSTAR":5.216893e-5,"MEAN_MOTION_DOT":1.76e-6,"MEAN_MOTION_DDOT":0}]
